#dP2025  1 22 18  0  0.00000000      96 __u+U IGS20 EXT  IAC
## 2350 324000.00000000   900.00000000 60697 0.7500000000000
+   52   G01G02G03G04G05G06G07G08G09G10G11G12G13G14G15G16G17
+        G18G19G20G21G22G23G24G25G26G27G28G29G30G31G32R01R02
+        R03R04R05R07R08R09R11R12R14R15R16R17R18R19R20R21R22
+        R24  0  0  0  0  0  0  0  0  0  0  0  0  0  0  0  0
+          0  0  0  0  0  0  0  0  0  0  0  0  0  0  0  0  0
++        10  8  7  9  8  7  8  8 12  8  7  8  7  8  8  8  8
++         7  8  8  8  8  8  8  8  8  8  7  8  7  7  8  9  8
++         8  8 10  8  8  7  9  8  8  8 10  8  9  9  8  8  8
++         7  0  0  0  0  0  0  0  0  0  0  0  0  0  0  0  0
++         0  0  0  0  0  0  0  0  0  0  0  0  0  0  0  0  0
%c M  cc GPS ccc cccc cccc cccc cccc ccccc ccccc ccccc ccccc
%c cc cc ccc ccc cccc cccc cccc cccc ccccc ccccc ccccc ccccc
%f  0.0000000  0.000000000  0.00000000000  0.000000000000000
%f  0.0000000  0.000000000  0.00000000000  0.000000000000000
%i    0    0    0    0      0      0      0      0         0
%i    0    0    0    0      0      0      0      0         0
/* IAC                                ULTRA-RAPID PREDICTION
/* S/V CLOCKS ARE ALIGNED TO GNSS TIME                      
/* G:C1WC2W R:C1PC2P E:C1XC5X C:C2IC6I J:C1CC2S             
/* PCV:IGS20_2317 OL/AL:FES2004  NONE     YN ORB:CoN CLK:CoN
*  2025 01 22 21  0  0.00000000
PG01  14616.594100 -12378.082847  18403.744997     69.095290
PG02  13851.442563 -10253.569415  20562.837348   -261.429890
PG03  23332.205957 -12522.770753  -1076.079477    650.966782
PG04  16432.524549  -5470.766795 -20159.623048    516.007122
PG05 -23082.196095   3043.239780 -13018.614561   -199.794191
PG06  -6373.409741 -22689.792835 -12050.785453   -136.933538
PG07   6685.957769 -24120.730954  -7636.825061    -13.375500
PG08  23242.256591   3190.095458  12746.978144    466.187550
PG09   7625.617194 -13217.041790 -21830.996869    538.999941
PG10   3092.205254  14757.961863  22066.404935   -287.898138
PG11 -12400.893906 -12836.984316 -19646.468833   -750.849088
PG12 -24660.160375   9704.618820   1087.105082   -565.984270
PG13 -22153.261830 -12937.549454   7113.831704    694.288084
PG14    948.938677 -16920.478513  20443.857807    584.935752
PG15 -23135.057497    -58.948727  12648.431578    254.749758
PG16  20933.016156   3960.705880 -16498.342376    -71.337464
PG17  -7047.599649 -19589.360953  16775.385328    461.912834
PG18  -5826.292311  25078.890755  -5987.218905   -656.823210
PG19 -16042.951398 -19908.881406   7844.455780    589.336656
PG20 -15808.703875  -5980.059592 -20369.274176    366.871416
PG21  15286.024772  -1833.885723  21959.676501    101.512537
PG22  -6645.825239 -13938.812614  21983.667142    -93.622422
PG23 -11844.692295  18082.473479  15319.097186    409.065865
PG24 -14484.146927   8243.254023  20131.471695   -461.038165
PG25 -17347.901622  17456.184424  -9997.698857    496.322091
PG26  12840.068201  10461.832016 -21005.138091    -59.124946
PG27  23451.380476  12626.052340   2666.640746    -32.679729
PG28   6549.784691  23693.798642 -10069.714591   -541.966803
PG29  -8605.448835  12391.422741 -21904.145347   -544.721360
PG30  -1279.772828 -26179.703116   3423.718733   -233.227514
PG31  11037.934232  16943.790564 -17278.304271   -217.277832
PG32  12898.788076  19214.682372  13449.760972   -536.602409
PR01   2444.755552  11392.572908  22694.476648    112.155216
PR02  18689.169637  10923.472124  13599.566214    -38.219152
PR03  24967.266265   3908.960491  -3655.683649    115.414189
PR04  17251.029889  -4496.601722 -18219.782518    273.720970
PR05    492.905930 -10798.577968 -23088.412213    144.185325
PR07 -24877.075193  -3695.964359   4129.836501     99.367600
PR08 -16925.662986   4966.443581  18472.629010     -6.343285
PR09  -6175.266082 -10050.822507  22623.408398    233.632801
PR11 -18605.892118  16490.399225   5751.491021     -2.813610
PR12  -9150.608272  19608.329610 -13480.072267     49.918717
PR14  16653.336661  -4973.552536 -18658.361653     27.632703
PR15  18350.940771 -17276.857825  -3896.194299     71.922236
PR16   9247.835905 -19599.062589  13427.803311     32.660741
PR17  12186.353200   5914.662540  21617.889562    159.821226
PR18   7088.725119 -11139.329653  21832.905338    183.254667
PR19    184.309827 -22157.256955  12641.196191   -306.472959
PR20  -9536.571859 -22028.627014  -8551.872927   -124.915333
PR21 -12214.858713  -7475.837752 -21109.773985   -170.412668
PR22  -7069.076243  12394.868251 -21118.025999    -57.233779
PR24  10969.129824  21213.921196   8967.268075    -89.285811
*  2025 01 22 21 15  0.00000000
PG01  14527.881375 -10193.141070  19764.630497     69.121059
PG02  14090.960917  -7947.868898  21456.803489   -261.421568
PG03  23367.416368 -12329.041136   1839.149813    650.972878
PG04  18248.062722  -4169.112420 -18883.227793    516.012330
PG05 -21816.265343   2077.131625 -15227.433536   -199.795110
PG06  -6166.872240 -23926.335557  -9502.418903   -136.957196
PG07   6968.772743 -23010.599085 -10234.793938    -13.375482
PG08  24302.978627   4018.881754  10376.941079    466.194274
PG09   9769.070884 -11989.398406 -21690.718514    539.013103
PG10    931.487413  15885.930737  21436.155237   -287.912354
PG11 -12145.290170 -14997.099932 -18233.036680   -750.847849
PG12 -24480.867460   9334.397335   3926.094574   -565.986201
PG13 -22552.812648 -13519.453745   4347.243447    694.289088
PG14   3024.533445 -17873.803022  19379.783272    584.942111
PG15 -24317.879634   -828.191861  10291.586704    254.753801
PG16  19239.834982   4850.865418 -18228.153192    -71.329066
PG17  -5355.189158 -18604.451861  18494.985517    461.896768
PG18  -6016.571739  24222.322145  -8714.419810   -656.821770
PG19 -15087.416072 -19431.886489  10421.951189    589.340695
PG20 -14004.130541  -7561.228453 -21157.129370    366.871167
PG21  15513.029985    591.438264  21967.581922    101.512924
PG22  -4424.905829 -14925.468874  21921.036020    -93.624099
PG23 -13325.421276  18766.510559  13093.071227    409.072562
PG24 -14784.909511   5806.433888  20774.937560   -461.034331
PG25 -18316.885498  17697.292325  -7391.834119    496.321529
PG26  10871.102843  11821.802083 -21359.972850    -59.139112
PG27  23487.282906  12911.637362   -154.758419    -32.679241
PG28   6330.106898  24697.725585  -7455.011132   -541.975179
PG29 -10631.871197  10948.578976 -21793.195453   -544.718213
PG30   -930.348147 -26391.943115    616.279415   -233.219804
PG31  10769.628851  18777.055408 -15392.720185   -217.277064
PG32  11420.949851  18537.507898  15584.740378   -536.595881
PR01   -338.437666  10926.420078  23050.941794    112.156498
PR02  16933.316225  10421.809464  16070.746920    -38.218816
PR03  25254.552910   3789.507236   -450.792947    115.414886
PR04  19355.292795  -4193.513075 -16054.995571    273.722615
PR05   3290.637944 -10217.276700 -23125.841654    144.185950
PR07 -25209.415525  -3592.917349    923.510282     99.368250
PR08 -19046.314376   4668.317355  16353.733584     -6.343163
PR09  -4467.810370 -12201.328048  21950.158047    233.634774
PR11 -17921.110691  15895.405581   8796.005469     -2.816400
PR12 -10040.821151  20818.743432 -10759.201350     49.919137
PR14  15061.044156  -3168.596784 -20331.612674     27.632532
PR15  17818.865403 -16844.909579  -7007.180391     71.921907
PR16  10115.717584 -20815.971161  10688.587406     32.661033
PR17  13093.096080   8334.812071  20242.798067    159.824247
PR18   7889.147864  -8508.854857  22728.777517    183.256440
PR19    499.098640 -20455.387439  15235.644442   -306.474132
PR20  -9973.617666 -22806.416956  -5456.048873   -124.915648
PR21 -13092.875788  -9832.038288 -19563.044094   -170.415524
PR22  -7800.083177   9817.472864 -22186.334265    -57.235342
PR24  11400.068163  22034.898495   5926.876079    -89.287179
EOF
